NORAD_CAT_ID,OBJECT_NAME,OBJECT_TYPE,EPOCH,MEAN_MOTION,ECCENTRICITY,INCLINATION,RA_OF_ASC_NODE,ARG_OF_PERICENTER,MEAN_ANOMALY,BSTAR,MEAN_MOTION_DOT,MEAN_MOTION_DDOT,TLE_LINE0,TLE_LINE1,TLE_LINE2,SEMIMAJOR_AXIS,PERIOD,APOGEE,PERIGEE,DECAYED
53145.0,STARLINK-4106,PAYLOAD,2024-04-30 00:06:42,15.08842897,0.0001378,53.2174,340.8526,83.8355,276.2794,0.00024417,3.6e-05,0.0,0 STARLINK-4106,1 53145U 22083P   24121.00466255  .00003600  00000-0  24417-3 0  9991,2 53145  53.2174 340.8526 0001378  83.8355 276.2794 15.08842897 99390,6917.872,95.437,540.69,538.783,0.0
53145.0,STARLINK-4106,PAYLOAD,2024-04-30 08:03:38,15.08850573,0.0001391,53.2175,339.3689,79.5655,280.5494,0.00033818,5.1e-05,0.0,0 STARLINK-4106,1 53145U 22083P   24121.33585944  .00005100  00000-0  33818-3 0  9996,2 53145  53.2175 339.3689 0001391  79.5655 280.5494 15.08850573 98815,6917.848,95.437,540.675,538.751,0.0
53145.0,STARLINK-4106,PAYLOAD,2024-04-30 20:46:43,15.08843889,0.0001554,53.2188,336.9909,81.0816,279.0352,0.00010779,1.428e-05,0.0,0 STARLINK-4106,1 53145U 22083P   24121.86578241  .00001428  00000-0  10779-3 0  9996,2 53145  53.2188 336.9909 0001554  81.0816 279.0352 15.08843889 98891,6917.869,95.437,540.809,538.658,0.0
53145.0,STARLINK-4106,PAYLOAD,2024-04-30 23:57:29,15.08846052,0.0001397,53.2179,336.3948,85.9446,274.1706,0.00014307,1.99e-05,0.0,0 STARLINK-4106,1 53145U 22083P   24121.99826013  .00001990  00000-0  14307-3 0  9998,2 53145  53.2179 336.3948 0001397  85.9446 274.1706 15.08846052 98912,6917.862,95.437,540.693,538.76,0.0
53145.0,STARLINK-4106,PAYLOAD,2024-05-01 20:37:30,15.08851085,0.0001493,53.2192,332.5288,90.9791,269.1372,0.00023993,3.534e-05,0.0,0 STARLINK-4106,1 53145U 22083P   24122.85937567  .00003534  00000-0  23993-3 0  9998,2 53145  53.2192 332.5288 0001493  90.9791 269.1372 15.08851085 99677,6917.847,95.437,540.744,538.679,0.0
53145.0,STARLINK-4106,PAYLOAD,2024-05-02 14:06:44,15.08842044,0.0001436,53.2187,329.2574,92.879,267.2366,0.00010024,1.308e-05,0.0,0 STARLINK-4106,1 53145U 22083P   24123.58801791  .00001308  00000-0  10024-3 0  9996,2 53145  53.2187 329.2574 0001436  92.8790 267.2366 15.08842044 99159,6917.874,95.437,540.733,538.746,0.0
53145.0,STARLINK-4106,PAYLOAD,2024-05-02 20:28:17,15.08836557,0.0001387,53.2183,328.0679,91.9162,268.1989,6.2906e-05,7.13e-06,0.0,0 STARLINK-4106,1 53145U 22083P   24123.85298236  .00000713  00000-0  62906-4 0  9996,2 53145  53.2183 328.0679 0001387  91.9162 268.1989 15.08836557 99823,6917.891,95.438,540.715,538.796,0.0
53145.0,STARLINK-4106,PAYLOAD,2024-05-03 13:57:31,15.08838001,0.0001276,53.2168,324.7952,88.0881,272.0257,8.5523e-05,1.073e-05,0.0,0 STARLINK-4106,1 53145U 22083P   24124.58161948  .00001073  00000-0  85523-4 0  9996,2 53145  53.2168 324.7952 0001276  88.0881 272.0257 15.08838001 99306,6917.886,95.438,540.634,538.869,0.0
53145.0,STARLINK-4106,PAYLOAD,2024-05-03 20:19:03,15.08873265,0.0001209,53.2178,323.6083,99.7795,260.3334,-0.00044535,-7.375e-05,0.0,0 STARLINK-4106,1 53145U 22083P   24124.84657229 -.00007375  00000-0 -44535-3 0  9997,2 53145  53.2178 323.6083 0001209  99.7795 260.3334 15.08873265 99979,6917.779,95.435,540.48,538.807,0.0
53145.0,STARLINK-4106,PAYLOAD,2024-05-03 23:29:50,15.08848295,0.0001738,53.2178,323.0138,96.4254,263.6936,-6.2866e-05,-1.289e-05,0.0,0 STARLINK-4106,1 53145U 22083P   24124.97905703 -.00001289  00000-0 -62866-4 0  9990,2 53145  53.2178 323.0138 0001738  96.4254 263.6936 15.08848295 99996,6917.855,95.437,540.922,538.518,0.0
53145.0,STARLINK-4106,PAYLOAD,2024-05-04 12:12:55,15.08836824,0.0001611,53.2189,320.638,90.723,269.3947,0.00015201,2.132e-05,0.0,0 STARLINK-4106,1 53145U 22083P   24125.50898120  .00002132  00000-0  15201-3 0  9990,2 53145  53.2189 320.6380 0001611  90.7230 269.3947 15.08836824100073,6917.89,95.438,540.87,538.641,0.0
53145.0,STARLINK-4106,PAYLOAD,2024-05-04 18:34:28,15.08830157,0.0001398,53.2171,319.4466,94.2167,265.8985,1.7945e-05,-2e-08,0.0,0 STARLINK-4106,1 53145U 22083P   24125.77394549 -.00000002  00000-0  17945-4 0  9998,2 53145  53.2171 319.4466 0001398  94.2167 265.8985 15.08830157100116,6917.91,95.438,540.743,538.808,0.0
53145.0,STARLINK-4106,PAYLOAD,2024-05-05 12:03:43,15.08840141,0.0001502,53.2181,316.1745,93.1694,266.947,0.00012841,1.756e-05,0.0,0 STARLINK-4106,1 53145U 22083P   24126.50258295  .00001756  00000-0  12841-3 0  9992,2 53145  53.2181 316.1745 0001502  93.1694 266.9470 15.08840141100228,6917.88,95.438,540.784,538.706,0.0
53145.0,STARLINK-4106,PAYLOAD,2024-05-05 20:00:38,15.08844413,0.0001451,53.2177,314.6874,89.604,270.5119,0.00019478,2.814e-05,0.0,0 STARLINK-4106,1 53145U 22083P   24126.83378205  .00002814  00000-0  19478-3 0  9991,2 53145  53.2177 314.6874 0001451  89.6040 270.5119 15.08844413 99647,6917.867,95.437,540.736,538.728,0.0
53145.0,STARLINK-4106,PAYLOAD,2024-05-06 05:32:57,15.08856098,0.0001445,53.2177,312.9029,76.3296,283.7857,0.00031627,4.751e-05,0.0,0 STARLINK-4106,1 53145U 22083P   24127.23121660  .00004751  00000-0  31627-3 0  9999,2 53145  53.2177 312.9029 0001445  76.3296 283.7857 15.08856098100335,6917.831,95.437,540.696,538.697,0.0
53145.0,STARLINK-4106,PAYLOAD,2024-05-06 19:51:25,15.08848088,0.000132,53.216,310.2263,85.1878,274.9265,0.00025151,3.718e-05,0.0,0 STARLINK-4106,1 53145U 22083P   24127.82737890  .00003718  00000-0  25151-3 0  9999,2 53145  53.2160 310.2263 0001320  85.1878 274.9265 15.08848088100429,6917.856,95.437,540.634,538.808,0.0
53145.0,STARLINK-4106,PAYLOAD,2024-05-07 11:45:17,15.08828915,0.0001432,53.2177,307.2533,85.1148,275.0008,-0.00019297,-3.357e-05,0.0,0 STARLINK-4106,1 53145U 22083P   24128.48978494 -.00003357  00000-0 -19297-3 0  9994,2 53145  53.2177 307.2533 0001432  85.1148 275.0008 15.08828915100522,6917.914,95.438,540.77,538.789,0.0
53145.0,STARLINK-4106,PAYLOAD,2024-05-07 18:06:49,15.08831663,0.0001365,53.2169,306.0638,84.8643,275.2505,-0.00011695,-2.148e-05,0.0,0 STARLINK-4106,1 53145U 22083P   24128.75474431 -.00002148  00000-0 -11695-3 0  9997,2 53145  53.2169 306.0638 0001365  84.8643 275.2505 15.08831663 99937,6917.906,95.438,540.715,538.827,0.0
53145.0,STARLINK-4106,PAYLOAD,2024-05-08 11:36:04,15.08837012,0.0001334,53.2165,302.7931,91.5857,268.5288,0.00045515,6.963e-05,0.0,0 STARLINK-4106,1 53145U 22083P   24129.48338911  .00006963  00000-0  45515-3 0  9995,2 53145  53.2165 302.7931 0001334  91.5857 268.5288 15.08837012100671,6917.89,95.438,540.677,538.832,0.0
53145.0,STARLINK-4106,PAYLOAD,2024-05-08 17:57:37,15.08841025,0.0001369,53.2162,301.6036,87.9296,272.1853,0.00077106,0.00012005,0.0,0 STARLINK-4106,1 53145U 22083P   24129.74835091  .00012005  00000-0  77106-3 0  9990,2 53145  53.2162 301.6036 0001369  87.9296 272.1853 15.08841025100089,6917.877,95.437,540.689,538.795,0.0
53145.0,STARLINK-4106,PAYLOAD,2024-05-09 14:37:38,15.08850342,0.0001403,53.2174,297.7371,90.6515,269.4638,0.00053585,8.253e-05,0.0,0 STARLINK-4106,1 53145U 22083P   24130.60946881  .00008253  00000-0  53585-3 0  9992,2 53145  53.2174 297.7371 0001403  90.6515 269.4638 15.08850342100210,6917.849,95.437,540.684,538.743,0.0
53145.0,STARLINK-4106,PAYLOAD,2024-05-09 17:48:24,15.08849396,0.0001381,53.2179,297.1419,92.0435,268.0715,0.00044249,6.763e-05,0.0,0 STARLINK-4106,1 53145U 22083P   24130.74194816  .00006763  00000-0  44249-3 0  9991,2 53145  53.2179 297.1419 0001381  92.0435 268.0715 15.08849396100863,6917.852,95.437,540.672,538.761,0.0
53145.0,STARLINK-4106,PAYLOAD,2024-05-10 11:17:38,15.08849205,0.0001451,53.2185,293.8706,94.3469,265.7689,0.00027663,4.118e-05,0.0,0 STARLINK-4106,1 53145U 22083P   24131.47058664  .00004118  00000-0  27663-3 0  9995,2 53145  53.2185 293.8706 0001451  94.3469 265.7689 15.08849205100977,6917.852,95.437,540.721,538.713,0.0
53145.0,STARLINK-4106,PAYLOAD,2024-05-10 17:39:11,15.08845276,0.0001192,53.2185,292.6859,84.0025,276.1103,0.00017804,2.547e-05,0.0,0 STARLINK-4106,1 53145U 22083P   24131.73554732  .00002547  00000-0  17804-3 0  9991,2 53145  53.2185 292.6859 0001192  84.0025 276.1103 15.08845276100385,6917.864,95.437,540.554,538.905,0.0
53145.0,STARLINK-4106,PAYLOAD,2024-05-11 11:08:23,15.08893689,0.0001373,53.2189,289.4146,94.0773,266.0377,0.0011087,0.00017427,0.0,0 STARLINK-4106,1 53145U 22083P   24132.46416322  .00017427  00000-0  11087-2 0  9993,2 53145  53.2189 289.4146 0001373  94.0773 266.0377 15.08893689101129,6917.716,95.434,540.531,538.631,0.0
53145.0,STARLINK-4106,PAYLOAD,2024-05-11 20:40:45,15.08752684,0.0001162,53.218,287.6272,99.5331,260.5792,-0.0023582,-0.00037533,0.0,0 STARLINK-4106,1 53145U 22083P   24132.86164162 -.00037533  00000-0 -23582-2 0  9994,2 53145  53.2180 287.6272 0001162  99.5331 260.5792 15.08752684101181,6918.147,95.443,540.816,539.208,0.0
53145.0,STARLINK-4106,PAYLOAD,2024-05-12 10:59:16,15.0875633,0.0002125,53.2181,284.9533,90.8932,269.2304,-0.0013443,-0.00021571,0.0,0 STARLINK-4106,1 53145U 22083P   24133.45783152 -.00021571  00000-0 -13443-2 0  9996,2 53145  53.2181 284.9533 0002125  90.8932 269.2304 15.08756330101270,6918.136,95.443,541.471,538.531,0.0
53145.0,STARLINK-4106,PAYLOAD,2024-05-12 14:10:02,15.08783796,0.0002379,53.2177,284.3557,112.4077,247.7167,-0.00036538,-6.09e-05,0.0,0 STARLINK-4106,1 53145U 22083P   24133.59030547 -.00006090  00000-0 -36538-3 0  9994,2 53145  53.2177 284.3557 0002379 112.4077 247.7167 15.08783796100663,6918.052,95.441,541.563,538.271,0.0
53145.0,STARLINK-4106,PAYLOAD,2024-05-12 17:20:49,15.08779829,0.000125,53.2168,283.7598,86.8724,273.2411,0.0017156,0.00027076,0.0,0 STARLINK-4106,1 53145U 22083P   24133.72279705  .00027076  00000-0  17156-2 0  9999,2 53145  53.2168 283.7598 0001250  86.8724 273.2411 15.08779829101312,6918.064,95.441,540.794,539.065,0.0
53145.0,STARLINK-4106,PAYLOAD,2024-05-13 02:53:09,15.08815613,0.0001503,53.2174,281.979,94.3234,265.793,0.0010218,0.00016,0.0,0 STARLINK-4106,1 53145U 22083P   24134.12025024  .00016000  00000-0  10218-2 0  9994,2 53145  53.2174 281.9790 0001503  94.3234 265.7930 15.08815613100744,6917.955,95.439,540.86,538.78,0.0
